[{"OBJECT_NAME":"TRANSPORTER-10 OBJECT AG","OBJECT_ID":"2024-043AG","EPOCH":"2026-03-09T22:12:45.387648","MEAN_MOTION":15.30759727,"ECCENTRICITY":0.00093005,"INCLINATION":97.5471,"RA_OF_ASC_NODE":205.7101,"ARG_OF_PERICENTER":226.5958,"MEAN_ANOMALY":133.4509,"EPHEMERIS_TYPE":0,"CLASSIFICATION_TYPE":"U","NORAD_CAT_ID":59128,"ELEMENT_SET_NO":999,"REV_AT_EPOCH":11192,"BSTAR":0.00032170115,"MEAN_MOTION_DOT":9.498e-5,"MEAN_MOTION_DDOT":0},{"OBJECT_NAME":"STARLINK-31800","OBJECT_ID":"2024-082N","EPOCH":"2026-03-09T06:12:45.344160","MEAN_MOTION":15.27572796,"ECCENTRICITY":9.074e-5,"INCLINATION":43.0009,"RA_OF_ASC_NODE":142.4296,"ARG_OF_PERICENTER":246.2429,"MEAN_ANOMALY":113.8327,"EPHEMERIS_TYPE":0,"CLASSIFICATION_TYPE":"U","NORAD_CAT_ID":59643,"ELEMENT_SET_NO":999,"REV_AT_EPOCH":10484,"BSTAR":2.0279998e-5,"MEAN_MOTION_DOT":2.96e-6,"MEAN_MOTION_DDOT":0}]
